NORAD_CAT_ID,OBJECT_NAME,OBJECT_TYPE,EPOCH,MEAN_MOTION,ECCENTRICITY,INCLINATION,RA_OF_ASC_NODE,ARG_OF_PERICENTER,MEAN_ANOMALY,BSTAR,MEAN_MOTION_DOT,MEAN_MOTION_DDOT,TLE_LINE0,TLE_LINE1,TLE_LINE2,SEMIMAJOR_AXIS,PERIOD,APOGEE,PERIGEE,DECAYED
51879.0,STARLINK-3572,PAYLOAD,2022-11-16 23:10:49,15.08845849,0.0002029,53.2187,25.2932,36.6352,323.4779,0.00012677,1.73e-05,0.0,0 STARLINK-3572,1 51879U 22022AD  22320.96584882  .00001730  00000-0  12677-3 0  9994,2 51879  53.2187  25.2932 0002029  36.6352 323.4779 15.08845849 40774,6917.863,95.437,541.131,538.3240000000002,0.0
51879.0,STARLINK-3572,PAYLOAD,2022-11-17 08:43:08,15.08839243,0.0002078,53.2184,23.5088,35.2631,324.8499,7.9066e-05,9.7e-06,0.0,0 STARLINK-3572,1 51879U 22022AD  22321.36329482  .00000970  00000-0  79066-4 0  9993,2 51879  53.2184  23.5088 0002078  35.2631 324.8499 15.08839243 40835,6917.8830000000025,95.438,541.185,538.31,0.0
51879.0,STARLINK-3572,PAYLOAD,2022-11-17 10:18:31,15.08836664,0.000266,53.2185,23.2119,23.3654,336.7458,0.00014064,1.95e-05,0.0,0 STARLINK-3572,1 51879U 22022AD  22321.42953653  .00001950  00000-0  14064-3 0  9998,2 51879  53.2185  23.2119 0002660  23.3654 336.7458 15.08836664 40840,6917.891,95.438,541.596,537.915,0.0
51879.0,STARLINK-3572,PAYLOAD,2022-11-18 03:47:45,15.08843298,0.000183,53.2192,19.9408,41.7808,318.3324,0.00010974,1.459e-05,0.0,0 STARLINK-3572,1 51879U 22022AD  22322.15816909  .00001459  00000-0  10974-3 0  9991,2 51879  53.2192  19.9408 0001830  41.7808 318.3324 15.08843298 40955,6917.87,95.437,541.001,538.469,0.0
51879.0,STARLINK-3572,PAYLOAD,2022-11-18 10:09:18,15.08839583,0.0002085,53.2187,18.7514,38.4971,321.6169,6.1818e-05,6.96e-06,0.0,0 STARLINK-3572,1 51879U 22022AD  22322.42313279  .00000696  00000-0  61818-4 0  9999,2 51879  53.2187  18.7514 0002085  38.4971 321.6169 15.08839583 40991,6917.882,95.438,541.189,538.304,0.0
51879.0,STARLINK-3572,PAYLOAD,2022-11-19 10:00:05,15.08845463,0.0002065,53.2187,14.2906,41.1483,318.9665,0.00011569,1.554e-05,0.0,0 STARLINK-3572,1 51879U 22022AD  22323.41672594  .00001554  00000-0  11569-3 0  9998,2 51879  53.2187  14.2906 0002065  41.1483 318.9665 15.08845463 41146,6917.864000000001,95.437,541.1569999999998,538.3,0.0
51879.0,STARLINK-3572,PAYLOAD,2022-11-19 13:10:51,15.08842303,0.0002133,53.2189,13.6962,38.515,321.5995,9.6358e-05,1.246e-05,0.0,0 STARLINK-3572,1 51879U 22022AD  22323.54920793  .00001246  00000-0  96358-4 0  9997,2 51879  53.2189  13.6962 0002133  38.5150 321.5995 15.08842303 41168,6917.873000000001,95.437,541.214,538.263,0.0
51879.0,STARLINK-3572,PAYLOAD,2022-11-20 09:50:52,15.08842985,0.000217,53.219,9.8307,39.8577,320.2574,7.0354e-05,8.32e-06,0.0,0 STARLINK-3572,1 51879U 22022AD  22324.41032610  .00000832  00000-0  70354-4 0  9994,2 51879  53.2190   9.8307 0002170  39.8577 320.2574 15.08842985 41297,6917.871,95.437,541.237,538.235,0.0
51879.0,STARLINK-3572,PAYLOAD,2022-11-21 03:20:07,15.08836898,0.0002214,53.2179,6.5606,38.7438,321.3712,-5.4855e-05,-1.161e-05,0.0,0 STARLINK-3572,1 51879U 22022AD  22325.13897316 -.00001161  00000-0 -54855-4 0  9992,2 51879  53.2179   6.5606 0002214  38.7438 321.3712 15.08836898 41408,6917.89,95.438,541.286,538.2230000000002,0.0
51879.0,STARLINK-3572,PAYLOAD,2022-11-21 09:41:40,15.08827066,0.0002072,53.2185,5.3707,36.1496,323.9636,-4.9393e-05,-1.074e-05,0.0,0 STARLINK-3572,1 51879U 22022AD  22325.40394039 -.00001074  00000-0 -49393-4 0  9990,2 51879  53.2185   5.3707 0002072  36.1496 323.9636 15.08827066 41446,6917.92,95.438,541.2180000000002,538.352,0.0
51879.0,STARLINK-3572,PAYLOAD,2022-11-22 09:32:27,15.08837238,0.0002173,53.2188,0.9113,36.1953,323.9185,4.1167e-05,3.67e-06,0.0,0 STARLINK-3572,1 51879U 22022AD  22326.39753725  .00000367  00000-0  41167-4 0  9993,2 51879  53.2188   0.9113 0002173  36.1953 323.9185 15.08837238 41598,6917.889,95.438,541.257,538.251,0.0
51879.0,STARLINK-3572,PAYLOAD,2022-11-23 09:23:14,15.08832823,0.0002106,53.219,356.4503,38.398,321.7162,0.00016486,2.336e-05,0.0,0 STARLINK-3572,1 51879U 22022AD  22327.39114165  .00002336  00000-0  16486-3 0  9996,2 51879  53.2190 356.4503 0002106  38.3980 321.7162 15.08832823 41746,6917.901999999999,95.438,541.224,538.31,0.0
51879.0,STARLINK-3572,PAYLOAD,2022-11-24 02:52:29,15.088424599999998,0.0002167,53.2191,353.1788,37.5575,322.5568,6.5904e-05,7.61e-06,0.0,0 STARLINK-3572,1 51879U 22022AD  22328.11978016  .00000761  00000-0  65904-4 0  9990,2 51879  53.2191 353.1788 0002167  37.5575 322.5568 15.08842460 41853,6917.873000000001,95.437,541.237,538.239,0.0
51879.0,STARLINK-3572,PAYLOAD,2022-11-24 09:14:01,15.088382500000002,0.0002235,53.2189,351.9895,34.5574,325.5563,2.1271e-05,5e-07,0.0,0 STARLINK-3572,1 51879U 22022AD  22328.38474443  .00000050  00000-0  21271-4 0  9994,2 51879  53.2189 351.9895 0002235  34.5574 325.5563 15.08838250 41891,6917.886,95.438,541.297,538.205,0.0
51879.0,STARLINK-3572,PAYLOAD,2022-11-24 18:46:20,15.08841709,0.0002304,53.2188,350.2053,33.5679,326.5458,6.3532e-05,7.23e-06,0.0,0 STARLINK-3572,1 51879U 22022AD  22328.78218118  .00000723  00000-0  63532-4 0  9996,2 51879  53.2188 350.2053 0002304  33.5679 326.5458 15.08841709 41954,6917.875,95.437,541.3340000000002,538.146,0.0
51879.0,STARLINK-3572,PAYLOAD,2022-11-25 09:04:48,15.08843234,0.0002308,53.2191,347.53,30.8231,329.2896,8.4156e-05,1.051e-05,0.0,0 STARLINK-3572,1 51879U 22022AD  22329.37833769  .00001051  00000-0  84156-4 0  9997,2 51879  53.2191 347.5300 0002308  30.8231 329.2896 15.08843234 42042,6917.871,95.437,541.332,538.139,0.0
51879.0,STARLINK-3572,PAYLOAD,2022-11-26 07:20:11,15.08845079,0.0002453,53.2195,343.3673,35.8254,324.2903,0.00012561,1.712e-05,0.0,0 STARLINK-3572,1 51879U 22022AD  22330.30569395  .00001712  00000-0  12561-3 0  9997,2 51879  53.2195 343.3673 0002453  35.8254 324.2903 15.08845079 42182,6917.865,95.437,541.427,538.033,0.0
51879.0,STARLINK-3572,PAYLOAD,2022-11-27 00:49:26,15.08849927,0.0002491,53.2187,340.0962,38.3667,321.7502,3.8309e-05,3.21e-06,0.0,0 STARLINK-3572,1 51879U 22022AD  22331.03433104  .00000321  00000-0  38309-4 0  9990,2 51879  53.2187 340.0962 0002491  38.3667 321.7502 15.08849927 42291,6917.85,95.437,541.438,537.992,0.0
51879.0,STARLINK-3572,PAYLOAD,2022-11-27 07:10:59,15.0884307,0.0002255,53.2188,338.9049,40.5251,319.5908,-5.1124e-05,-1.102e-05,0.0,0 STARLINK-3572,1 51879U 22022AD  22331.29929590 -.00001102  00000-0 -51124-4 0  9997,2 51879  53.2188 338.9049 0002255  40.5251 319.5908 15.08843070 42339,6917.871,95.437,541.2959999999998,538.1759999999998,0.0
51879.0,STARLINK-3572,PAYLOAD,2022-11-28 10:12:32,15.08844361,0.0002509,53.2185,333.8506,35.4446,324.6712,-0.00012016,-2.201e-05,0.0,0 STARLINK-3572,1 51879U 22022AD  22332.42537884 -.00002201  00000-0 -12016-3 0  9991,2 51879  53.2185 333.8506 0002509  35.4446 324.6712 15.08844361 42502,6917.8669999999975,95.437,541.4680000000002,537.996,0.0
51879.0,STARLINK-3572,PAYLOAD,2022-11-29 10:03:20,15.08833819,0.0002527,53.2178,329.3914,34.2163,325.8992,-4.7804e-06,-3.65e-06,0.0,0 STARLINK-3572,1 51879U 22022AD  22333.41898347 -.00000365  00000-0 -47804-5 0  9999,2 51879  53.2178 329.3914 0002527  34.2163 325.8992 15.08833819 42655,6917.899,95.438,541.512,538.016,0.0
51879.0,STARLINK-3572,PAYLOAD,2022-11-30 06:43:21,15.0882785,0.0002379,53.2182,325.5254,36.7325,323.383,4.544e-05,4.35e-06,0.0,0 STARLINK-3572,1 51879U 22022AD  22334.28011006  .00000435  00000-0  45440-4 0  9993,2 51879  53.2182 325.5254 0002379  36.7325 323.3830 15.08827850 42783,6917.918000000002,95.438,541.428,538.137,0.0
51879.0,STARLINK-3572,PAYLOAD,2022-11-30 16:15:40,15.08834889,0.0002415,53.2186,323.7411,37.8579,322.2582,5.0074e-05,5.09e-06,0.0,0 STARLINK-3572,1 51879U 22022AD  22334.67754759  .00000509  00000-0  50074-4 0  9996,2 51879  53.2186 323.7411 0002415  37.8579 322.2582 15.08834889 42845,6917.896,95.438,541.432,538.09,0.0
51879.0,STARLINK-3572,PAYLOAD,2022-12-01 00:12:35,15.08844385,0.000237,53.2186,322.2537,40.2491,319.8676,5.379e-05,5.68e-06,0.0,0 STARLINK-3572,1 51879U 22022AD  22335.00874231  .00000568  00000-0  53790-4 0  9995,2 51879  53.2186 322.2537 0002370  40.2491 319.8676 15.08844385 42892,6917.8669999999975,95.437,541.372,538.092,0.0
51879.0,STARLINK-3572,PAYLOAD,2022-12-01 09:44:54,15.08838294,0.0002382,53.2193,320.4708,33.552,326.5623,0.00012331,1.675e-05,0.0,0 STARLINK-3572,1 51879U 22022AD  22335.40618485  .00001675  00000-0  12331-3 0  9991,2 51879  53.2193 320.4708 0002382  33.5520 326.5623 15.08838294 42957,6917.886,95.438,541.398,538.1030000000002,0.0
51879.0,STARLINK-3572,PAYLOAD,2022-12-01 16:06:26,15.08840077,0.0002134,53.2193,319.2813,39.4406,320.6742,0.00011606,1.559e-05,0.0,0 STARLINK-3572,1 51879U 22022AD  22335.67114377  .00001559  00000-0  11606-3 0  9996,2 51879  53.2193 319.2813 0002134  39.4406 320.6742 15.08840077 42996,6917.88,95.438,541.221,538.269,0.0
51879.0,STARLINK-3572,PAYLOAD,2022-12-01 22:27:59,15.08835448,0.0002359,53.2199,318.0914,36.6663,323.449,0.00010653,1.407e-05,0.0,0 STARLINK-3572,1 51879U 22022AD  22335.93610703  .00001407  00000-0  10653-3 0  9992,2 51879  53.2199 318.0914 0002359  36.6663 323.4490 15.08835448 43037,6917.894,95.438,541.391,538.127,0.0
51879.0,STARLINK-3572,PAYLOAD,2022-12-02 08:00:18,15.08833035,0.0002429,53.2197,316.3075,35.75,324.3655,7.685399999999999e-05,9.35e-06,0.0,0 STARLINK-3572,1 51879U 22022AD  22336.33355112  .00000935  00000-0  76854-4 0  9998,2 51879  53.2197 316.3075 0002429  35.7500 324.3655 15.08833035 43091,6917.901999999999,95.438,541.447,538.086,0.0
51879.0,STARLINK-3572,PAYLOAD,2022-12-02 15:57:13,15.08842639,0.00025,53.2202,314.8207,36.1051,324.011,0.0001036,1.361e-05,0.0,0 STARLINK-3572,1 51879U 22022AD  22336.66474477  .00001361  00000-0  10360-3 0  9993,2 51879  53.2202 314.8207 0002500  36.1051 324.0110 15.08842639 43143,6917.871999999999,95.437,541.467,538.008,0.0
